NORAD_CAT_ID,OBJECT_NAME,OBJECT_TYPE,EPOCH,MEAN_MOTION,ECCENTRICITY,INCLINATION,RA_OF_ASC_NODE,ARG_OF_PERICENTER,MEAN_ANOMALY,BSTAR,MEAN_MOTION_DOT,MEAN_MOTION_DDOT,TLE_LINE0,TLE_LINE1,TLE_LINE2,SEMIMAJOR_AXIS,PERIOD,APOGEE,PERIGEE,DECAYED
55671.0,STARLINK-5460,PAYLOAD,2024-01-20 03:52:25,14.96716911,0.0002839,70.0006,330.1192,264.1441,95.9394,0.00011557,1.231e-05,0.0,0 STARLINK-5460,1 55671U 23021AV  24020.16140342  .00001231  00000-0  11557-3 0  9990,2 55671  70.0006 330.1192 0002839 264.1441  95.9394 14.96716911 52216,6955.186,96.211,579.025,575.076,0.0
55671.0,STARLINK-5460,PAYLOAD,2024-01-20 07:04:53,14.9672024,0.0002774,70.001,329.784,254.0805,106.0047,0.00013867,1.496e-05,0.0,0 STARLINK-5460,1 55671U 23021AV  24020.29506418  .00001496  00000-0  13867-3 0  9993,2 55671  70.0010 329.7840 0002774 254.0805 106.0047 14.96720240 52539,6955.175,96.21,578.97,575.111,0.0
55671.0,STARLINK-5460,PAYLOAD,2024-01-20 19:54:44,14.96751843,0.00035,70.001,328.4409,279.0245,81.0517,0.00036495,4.092e-05,0.0,0 STARLINK-5460,1 55671U 23021AV  24020.82968579  .00004092  00000-0  36495-3 0  9999,2 55671  70.0010 328.4409 0003500 279.0245  81.0517 14.96751843 52312,6955.077,96.208,579.377,574.508,0.0
55671.0,STARLINK-5460,PAYLOAD,2024-01-20 23:07:02,14.96894553,0.0002381,70.0006,328.1028,245.2239,114.8671,0.0019758,0.000227,0.0,0 STARLINK-5460,1 55671U 23021AV  24020.96321776  .00022700  00000-0  19758-2 0  9994,2 55671  70.0006 328.1028 0002381 245.2239 114.8671 14.96894553 52632,6954.635,96.199,578.156,574.845,0.0
55671.0,STARLINK-5460,PAYLOAD,2024-01-21 03:55:33,14.9701592,0.0003008,70.0012,327.5989,244.4168,115.6679,0.0032589,0.00037701,0.0,0 STARLINK-5460,1 55671U 23021AV  24021.16357730  .00037701  00000-0  32589-2 0  9990,2 55671  70.0012 327.5989 0003008 244.4168 115.6679 14.97015920 52368,6954.26,96.191,578.216,574.033,0.0
55671.0,STARLINK-5460,PAYLOAD,2024-01-21 05:31:45,14.97029743,0.0003195,70.0007,327.4316,244.7397,115.3431,0.0033602,0.00038896,0.0,0 STARLINK-5460,1 55671U 23021AV  24021.23038802  .00038896  00000-0  33602-2 0  9997,2 55671  70.0007 327.4316 0003195 244.7397 115.3431 14.97029743 52371,6954.217,96.19,578.304,573.86,0.0
55671.0,STARLINK-5460,PAYLOAD,2024-01-21 21:33:29,14.97316135,0.0002763,70.0011,325.7473,282.0364,78.0485,0.0057287,0.00067139,0.0,0 STARLINK-5460,1 55671U 23021AV  24021.89826186  .00067139  00000-0  57287-2 0  9996,2 55671  70.0011 325.7473 0002763 282.0364  78.0485 14.97316135 52772,6953.33,96.172,577.116,573.274,0.0
55671.0,STARLINK-5460,PAYLOAD,2024-01-22 03:57:52,14.97629792,0.0002631,70.0013,325.0749,251.4319,108.6554,0.0087351,0.00103797,0.0,0 STARLINK-5460,1 55671U 23021AV  24022.16519486  .00103797  00000-0  87351-2 0  9995,2 55671  70.0013 325.0749 0002631 251.4319 108.6554 14.97629792 52512,6952.359,96.152,576.053,572.395,0.0
55671.0,STARLINK-5460,PAYLOAD,2024-01-22 05:34:01,14.9766452,0.0002718,70.0002,324.9048,263.6333,96.4517,0.0089592,0.00106601,0.0,0 STARLINK-5460,1 55671U 23021AV  24022.23196587  .00106601  00000-0  89592-2 0  9992,2 55671  70.0002 324.9048 0002718 263.6333  96.4517 14.97664520 52822,6952.252,96.15,576.006,572.227,0.0
55671.0,STARLINK-5460,PAYLOAD,2024-01-22 14:00:01,14.98307486,0.0003035,70.0018,324.0195,269.1813,184.0153,0.0021932,0.00026159,0.0,0 STARLINK-5460,1 55671U 23021AV  24022.58334491  .00026159  00000-0  21932-2 0  9991,2 55671  70.0018 324.0195 0003035 269.1813 184.0153 14.98307486 52578,6950.263,96.108,574.237,570.018,0.0
55671.0,STARLINK-5460,PAYLOAD,2024-01-22 22:00:00,14.98356518,0.0003089,70.0022,323.179,267.6717,182.9823,-0.00163,-0.00019501,0.0,0 STARLINK-5460,1 55671U 23021AV  24022.91667824 -.00019501  00000-0 -16300-2 0  9995,2 55671  70.0022 323.1790 0003089 267.6717 182.9823 14.98356518  5680,6950.111,96.105,574.123,569.829,0.0
55671.0,STARLINK-5460,PAYLOAD,2024-01-23 08:00:01,14.98324264,0.0003229,70.0019,322.1282,274.0121,263.536,-0.00053688,-6.492e-05,0.0,0 STARLINK-5460,1 55671U 23021AV  24023.33334491 -.00006492  00000-0 -53688-3 0  9999,2 55671  70.0019 322.1282 0003229 274.0121 263.5360 14.98324264  5740,6950.211,96.107,574.32,569.831,0.0
55671.0,STARLINK-5460,PAYLOAD,2024-01-23 14:00:01,14.98302243,0.000324,70.0022,321.4979,269.1938,176.4709,0.0033693,0.00040313,0.0,0 STARLINK-5460,1 55671U 23021AV  24023.58334491  .00040313  00000-0  33693-2 0  9997,2 55671  70.0022 321.4979 0003240 269.1938 176.4709 14.98302243 52725,6950.279,96.109,574.396,569.892,0.0
55671.0,STARLINK-5460,PAYLOAD,2024-01-24 00:00:00,14.98362843,0.0003285,70.0024,320.4476,270.4722,262.0211,-0.0036198,-0.00043057,0.0,0 STARLINK-5460,1 55671U 23021AV  24024.00001157 -.00043057  00000-0 -36198-2 0  9998,2 55671  70.0024 320.4476 0003285 270.4722 262.0211 14.98362843  5745,6950.091,96.105,574.239,569.673,0.0
55671.0,STARLINK-5460,PAYLOAD,2024-01-24 06:00:02,14.98330158,0.0003266,70.0023,319.8172,275.6192,165.0714,-0.00076548,-9.215e-05,0.0,0 STARLINK-5460,1 55671U 23021AV  24024.25002315 -.00009215  00000-0 -76548-3 0  9994,2 55671  70.0023 319.8172 0003266 275.6192 165.0714 14.98330158 52821,6950.192,96.107,574.327,569.787,0.0
55671.0,STARLINK-5460,PAYLOAD,2024-01-24 14:00:01,14.98298363,0.0003202,70.0024,318.9768,271.9948,166.1229,0.0037908,0.00045396,0.0,0 STARLINK-5460,1 55671U 23021AV  24024.58334491  .00045396  00000-0  37908-2 0  9997,2 55671  70.0024 318.9768 0003202 271.9948 166.1229 14.98298363  5733,6950.291,96.109,574.381,569.93,0.0
55671.0,STARLINK-5460,PAYLOAD,2024-01-25 00:00:00,14.98363467,0.0003226,70.0025,317.9266,272.2596,252.6892,-0.0040871,-0.00048566,0.0,0 STARLINK-5460,1 55671U 23021AV  24025.00001157 -.00048566  00000-0 -40871-2 0  9992,2 55671  70.0025 317.9266 0003226 272.2596 252.6892 14.98363467  5796,6950.089,96.105,574.196,569.712,0.0
55671.0,STARLINK-5460,PAYLOAD,2024-01-25 06:00:00,14.98320599,0.0003184,70.0024,317.2962,275.3462,157.7331,0.00068193,8.051e-05,0.0,0 STARLINK-5460,1 55671U 23021AV  24025.25001157  .00008051  00000-0  68193-3 0  9990,2 55671  70.0024 317.2962 0003184 275.3462 157.7331 14.98320599 52974,6950.222,96.108,574.3,569.874,0.0
55671.0,STARLINK-5460,PAYLOAD,2024-01-25 14:00:01,14.9829598,0.0003096,70.0024,316.456,269.2439,161.318,0.0038424,0.00046016,0.0,0 STARLINK-5460,1 55671U 23021AV  24025.58334491  .00046016  00000-0  38424-2 0  9992,2 55671  70.0024 316.4560 0003096 269.2439 161.3180 14.98295980  5737,6950.298,96.109,574.315,570.011,0.0
55671.0,STARLINK-5460,PAYLOAD,2024-01-26 00:00:00,14.98357784,0.0003131,70.0025,315.4056,271.4029,245.9906,-0.00403,-0.00047886,0.0,0 STARLINK-5460,1 55671U 23021AV  24026.00001157 -.00047886  00000-0 -40300-2 0  9994,2 55671  70.0025 315.4056 0003131 271.4029 245.9906 14.98357784  5799,6950.107,96.105,574.148,569.796,0.0
55671.0,STARLINK-5460,PAYLOAD,2024-01-26 05:42:32,14.9833216,0.0002713,70.0014,314.8091,255.7113,104.3745,6.6429e-05,7e-06,0.0,0 STARLINK-5460,1 55671U 23021AV  24026.23787560  .00000700  00000-0  66429-4 0  9992,2 55671  70.0014 314.8091 0002713 255.7113 104.3745 14.98332160 53426,6950.186,96.107,573.937,570.166,0.0
55671.0,STARLINK-5460,PAYLOAD,2024-01-27 04:08:25,14.98330238,0.0002585,70.0015,312.4521,252.8219,107.2657,6.947e-05,7.36e-06,0.0,0 STARLINK-5460,1 55671U 23021AV  24027.17251658  .00000736  00000-0  69470-4 0  9998,2 55671  70.0015 312.4521 0002585 252.8219 107.2657 14.98330238 53564,6950.192,96.107,573.854,570.261,0.0
55671.0,STARLINK-5460,PAYLOAD,2024-01-27 20:09:46,14.98329839,0.0002645,70.0011,310.7678,253.4668,106.6201,3.5639e-05,3.32e-06,0.0,0 STARLINK-5460,1 55671U 23021AV  24027.84011775  .00000332  00000-0  35639-4 0  9998,2 55671  70.0011 310.7678 0002645 253.4668 106.6201 14.98329839 53367,6950.193,96.107,573.897,570.22,0.0
55671.0,STARLINK-5460,PAYLOAD,2024-01-27 21:45:54,14.98328796,0.0002656,70.001,310.5993,255.7518,104.3346,3.8595e-05,3.68e-06,0.0,0 STARLINK-5460,1 55671U 23021AV  24027.90687798  .00000368  00000-0  38595-4 0  9992,2 55671  70.0010 310.5993 0002656 255.7518 104.3346 14.98328796 53675,6950.197,96.107,573.908,570.216,0.0
55671.0,STARLINK-5460,PAYLOAD,2024-01-28 04:10:26,14.98330711,0.0002867,70.0004,309.9249,265.2327,94.8505,2.8543e-05,2.48e-06,0.0,0 STARLINK-5460,1 55671U 23021AV  24028.17391752  .00000248  00000-0  28543-4 0  9993,2 55671  70.0004 309.9249 0002867 265.2327  94.8505 14.98330711 53717,6950.191,96.107,574.048,570.063,0.0
55671.0,STARLINK-5460,PAYLOAD,2024-01-28 20:11:47,14.98329333,0.0002713,70.0003,308.2408,260.0647,100.0206,2.5139e-05,2.07e-06,0.0,0 STARLINK-5460,1 55671U 23021AV  24028.84151866  .00000207  00000-0  25139-4 0  9990,2 55671  70.0003 308.2408 0002713 260.0647 100.0206 14.98329333 53517,6950.195,96.107,573.946,570.174,0.0
55671.0,STARLINK-5460,PAYLOAD,2024-01-28 21:47:55,14.98329118,0.0002707,70.0003,308.0723,259.697,100.3884,2.7181e-05,2.31e-06,0.0,0 STARLINK-5460,1 55671U 23021AV  24028.90827869  .00000231  00000-0  27181-4 0  9996,2 55671  70.0003 308.0723 0002707 259.6970 100.3884 14.98329118 53821,6950.196,96.107,573.942,570.179,0.0
55671.0,STARLINK-5460,PAYLOAD,2024-01-29 18:37:39,14.98330575,0.000272,70.0004,305.8847,264.9029,95.1819,6.005e-05,6.24e-06,0.0,0 STARLINK-5460,1 55671U 23021AV  24029.77615613  .00000624  00000-0  60050-4 0  9992,2 55671  70.0004 305.8847 0002720 264.9029  95.1819 14.98330575 53955,6950.191,96.107,573.947,570.166,0.0
55671.0,STARLINK-5460,PAYLOAD,2024-01-30 04:14:28,14.98332398,0.0002721,70.0005,304.8753,265.3254,94.7594,7.3194e-05,7.81e-06,0.0,0 STARLINK-5460,1 55671U 23021AV  24030.17671447  .00000781  00000-0  73194-4 0  9992,2 55671  70.0005 304.8753 0002721 265.3254  94.7594 14.98332398 53711,6950.185,96.107,573.942,570.159,0.0
55671.0,STARLINK-5460,PAYLOAD,2024-01-30 21:51:56,14.98332548,0.0002629,70.0007,303.0257,255.4675,104.6193,2.2817e-05,1.79e-06,0.0,0 STARLINK-5460,1 55671U 23021AV  24030.91107419  .00000179  00000-0  22817-4 0  9994,2 55671  70.0007 303.0257 0002629 255.4675 104.6193 14.98332548 54126,6950.185,96.107,573.877,570.223,0.0
